NORAD_CAT_ID,OBJECT_NAME,OBJECT_TYPE,EPOCH,MEAN_MOTION,ECCENTRICITY,INCLINATION,RA_OF_ASC_NODE,ARG_OF_PERICENTER,MEAN_ANOMALY,BSTAR,MEAN_MOTION_DOT,MEAN_MOTION_DDOT,TLE_LINE0,TLE_LINE1,TLE_LINE2,SEMIMAJOR_AXIS,PERIOD,APOGEE,PERIGEE,DECAYED
53856.0,STARLINK-4795,PAYLOAD,2022-10-26 14:00:01,15.73209713,0.000162,53.2153,72.9784,38.7747,272.8477,0.0002029,0.00027962,0.0,0 STARLINK-4795,1 53856U 22114AQ  22299.58334491  .00027962  00000-0  20290-3 0  9990,2 53856  53.2153  72.9784 0001620  38.7747 272.8477 15.73209713  1309,6727.8669999999975,91.533,350.82199999999995,348.64300000000014,0.0
53856.0,STARLINK-4795,PAYLOAD,2022-10-26 22:00:00,15.73270587,0.0001806,53.2153,71.3295,33.7218,6.8432,-0.00044561,-0.00062886,0.0,0 STARLINK-4795,1 53856U 22114AQ  22299.91667824 -.00062886  00000-0 -44561-3 0  9999,2 53856  53.2153  71.3295 0001806  33.7218   6.8432 15.73270587  1306,6727.694,91.529,350.774,348.344,0.0
53856.0,STARLINK-4795,PAYLOAD,2022-10-27 08:00:01,15.73192311,0.0001623,53.2157,69.2655,38.4846,203.3233,0.00037636,0.00052514,0.0,0 STARLINK-4795,1 53856U 22114AQ  22300.33334491  .00052514  00000-0  37636-3 0  9999,2 53856  53.2157  69.2655 0001623  38.4846 203.3233 15.73192311  6601,6727.917,91.534,350.874,348.69,0.0
53856.0,STARLINK-4795,PAYLOAD,2022-10-27 14:00:01,15.73226557,0.0001771999999999,53.2155,68.0301,30.5876,187.9827,-0.00039574,-0.00055859,0.0,0 STARLINK-4795,1 53856U 22114AQ  22300.58335648 -.00055859  00000-0 -39574-3 0  9991,2 53856  53.2155  68.0301 0001772  30.5876 187.9827 15.73226557  1303,6727.819,91.532,350.87699999999984,348.492,0.0
53856.0,STARLINK-4795,PAYLOAD,2022-10-27 22:00:00,15.73205633,0.0001851,53.215,66.3809,25.2834,282.1584,0.00049178,0.00068985,0.0,0 STARLINK-4795,1 53856U 22114AQ  22300.91667824  .00068985  00000-0  49178-3 0  9995,2 53856  53.2150  66.3809 0001851  25.2834 282.1584 15.73205633  1305,6727.879,91.533,350.98900000000015,348.499,0.0
53856.0,STARLINK-4795,PAYLOAD,2022-10-28 00:00:02,15.732370800000002,0.0001821999999999,53.2151,65.9679,27.8307,31.907,0.0001605,0.00022,0.0,0 STARLINK-4795,1 53856U 22114AQ  22301.00002315  .00022000  00000-0  16050-3 0  9995,2 53856  53.2151  65.9679 0001822  27.8307  31.9070 15.73237080  6707,6727.7890000000025,91.531,350.88,348.42900000000014,0.0
53856.0,STARLINK-4795,PAYLOAD,2022-10-28 14:00:01,15.73191649,0.0002082,53.2154,63.0817,37.3628,88.0976,0.00017146,0.00023502,0.0,0 STARLINK-4795,1 53856U 22114AQ  22301.58335648  .00023502  00000-0  17146-3 0  9991,2 53856  53.2154  63.0817 0002082  37.3628  88.0976 15.73191649  1303,6727.919,91.534,351.185,348.3830000000001,0.0
53856.0,STARLINK-4795,PAYLOAD,2022-10-28 22:00:01,15.7326492,0.0002083,53.2154,61.4323,32.18,182.1951,-0.00074693,-0.00104457,0.0,0 STARLINK-4795,1 53856U 22114AQ  22301.91668981 -.00104457  00000-0 -74693-3 0  9998,2 53856  53.2154  61.4323 0002083  32.1800 182.1951 15.73264920  1305,6727.71,91.529,350.976,348.1740000000001,0.0
53856.0,STARLINK-4795,PAYLOAD,2022-10-29 08:00:01,15.73180408,0.0001885999999999,53.2159,59.3689,28.0529,27.4554,0.0004383999999999,0.00061307,0.0,0 STARLINK-4795,1 53856U 22114AQ  22302.33334491  .00061307  00000-0  43840-3 0  9995,2 53856  53.2159  59.3689 0001886  28.0529  27.4554 15.73180408  6913,6727.951,91.534,351.085,348.547,0.0
53856.0,STARLINK-4795,PAYLOAD,2022-10-29 12:00:00,15.73251714,0.0001952,53.2156,58.5452,23.9938,255.9743,-0.00045415,-0.00064021,0.0,0 STARLINK-4795,1 53856U 22114AQ  22302.50001157 -.00064021  00000-0 -45415-3 0  9992,2 53856  53.2156  58.5452 0001952  23.9938 255.9743 15.73251714  1306,6727.748000000001,91.53,350.926,348.2990000000001,0.0
53856.0,STARLINK-4795,PAYLOAD,2022-10-29 22:00:01,15.73164439,0.0002188,53.2149,56.4837,24.5684,96.5956,0.00037086,0.00051672,0.0,0 STARLINK-4795,1 53856U 22114AQ  22302.91668981  .00051672  00000-0  37086-3 0  9992,2 53856  53.2149  56.4837 0002188  24.5684  96.5956 15.73164439  1301,6727.996999999999,91.535,351.334,348.389,0.0
53856.0,STARLINK-4795,PAYLOAD,2022-10-30 00:00:00,15.73199347,0.0002086999999999,53.215,56.0708,24.5159,208.7978,-5.539999999999999e-05,-8.389e-05,0.0,0 STARLINK-4795,1 53856U 22114AQ  22303.00001157 -.00008389  00000-0 -55400-4 0  9999,2 53856  53.2150  56.0708 0002087  24.5159 208.7978 15.73199347  7023,6727.897,91.533,351.166,348.358,0.0
53856.0,STARLINK-4795,PAYLOAD,2022-10-30 14:00:01,15.731500699999998,0.0002278999999999,53.2151,53.1851,25.154,273.7818,0.00042562,0.00059412,0.0,0 STARLINK-4795,1 53856U 22114AQ  22303.58334491  .00059412  00000-0  42562-3 0  9997,2 53856  53.2151  53.1851 0002279  25.1540 273.7818 15.73150070  1305,6728.038000000001,91.536,351.436,348.369,0.0
53856.0,STARLINK-4795,PAYLOAD,2022-10-30 22:00:01,15.73246037,0.0002304,53.2152,51.5352,21.1034,6.7859,-0.00045897,-0.00064677,0.0,0 STARLINK-4795,1 53856U 22114AQ  22303.91668981 -.00064677  00000-0 -45897-3 0  9993,2 53856  53.2152  51.5352 0002304  21.1034   6.7859 15.73246037  1305,6727.764,91.531,351.17900000000014,348.079,0.0
53856.0,STARLINK-4795,PAYLOAD,2022-10-31 14:00:01,15.73197611,0.0002523,53.2152,48.2364,24.806,180.8863,0.0001359,0.00018493,0.0,0 STARLINK-4795,1 53856U 22114AQ  22304.58334491  .00018493  00000-0  13590-3 0  9991,2 53856  53.2152  48.2364 0002523  24.8060 180.8863 15.73197611  1305,6727.901999999999,91.533,351.464,348.07,0.0
53856.0,STARLINK-4795,PAYLOAD,2022-10-31 22:00:01,15.73241742,0.000242,53.2146,46.5861,19.1814,275.5102,-0.00058348,-0.00081876,0.0,0 STARLINK-4795,1 53856U 22114AQ  22304.91668981 -.00081876  00000-0 -58348-3 0  9999,2 53856  53.2146  46.5861 0002420  19.1814 275.5102 15.73241742  1304,6727.776,91.531,351.269,348.01300000000015,0.0
53856.0,STARLINK-4795,PAYLOAD,2022-11-01 00:00:02,15.73220901,0.0002311999999999,53.2148,46.1732,18.1053,28.829,-0.00037795,-0.00053383,0.0,0 STARLINK-4795,1 53856U 22114AQ  22305.00002315 -.00053383  00000-0 -37795-3 0  9998,2 53856  53.2148  46.1732 0002312  18.1053  28.8290 15.73220901  7333,6727.8359999999975,91.532,351.256,348.145,0.0
53856.0,STARLINK-4795,PAYLOAD,2022-11-01 06:00:00,15.7317718,0.0002204,53.215,44.9352,16.8163,6.7637,0.00062734,0.00088271,0.0,0 STARLINK-4795,1 53856U 22114AQ  22305.25001157  .00088271  00000-0  62734-3 0  9991,2 53856  53.2150  44.9352 0002204  16.8163   6.7637 15.73177180  7371,6727.96,91.535,351.30800000000005,348.342,0.0
53856.0,STARLINK-4795,PAYLOAD,2022-11-01 14:00:01,15.73198186,0.0002465,53.215,43.2876,12.5753,99.9448,0.00020402,0.00028108,0.0,0 STARLINK-4795,1 53856U 22114AQ  22305.58334491  .00028108  00000-0  20402-3 0  9996,2 53856  53.2150  43.2876 0002465  12.5753  99.9448 15.73198186  1301,6727.9,91.533,351.4240000000001,348.107,0.0
53856.0,STARLINK-4795,PAYLOAD,2022-11-01 22:00:00,15.73268756,0.0002528,53.2152,41.6372,12.9861,188.4648,-0.00081505,-0.0011382999999999,0.0,0 STARLINK-4795,1 53856U 22114AQ  22305.91667824 -.00113830  00000-0 -81505-3 0  9992,2 53856  53.2152  41.6372 0002528  12.9861 188.4648 15.73268756  1307,6727.699000000001,91.529,351.265,347.86300000000006,0.0
53856.0,STARLINK-4795,PAYLOAD,2022-11-02 06:00:00,15.73194823,0.0002485999999999,53.2155,39.9862,17.9015,272.5135,-0.00024147,-0.0003437,0.0,0 STARLINK-4795,1 53856U 22114AQ  22306.25001157 -.00034370  00000-0 -24147-3 0  9991,2 53856  53.2155  39.9862 0002486  17.9015 272.5135 15.73194823  7533,6727.91,91.533,351.44699999999995,348.102,0.0
53856.0,STARLINK-4795,PAYLOAD,2022-11-02 14:00:01,15.73141924,0.0002846,53.2159,38.3398,19.3952,359.931,0.00057943,0.00081297,0.0,0 STARLINK-4795,1 53856U 22114AQ  22306.58334491  .00081297  00000-0  57943-3 0  9995,2 53856  53.2159  38.3398 0002846  19.3952 359.9310 15.73141924  1308,6728.061,91.537,351.841,348.011,0.0
53856.0,STARLINK-4795,PAYLOAD,2022-11-02 22:00:00,15.73217147,0.0002791999999999,53.2148,36.6883,19.2562,88.928,0.00021034,0.00029026,0.0,0 STARLINK-4795,1 53856U 22114AQ  22306.91667824  .00029026  00000-0  21034-3 0  9995,2 53856  53.2148  36.6883 0002792  19.2562  88.9280 15.73217147  7641,6727.846,91.532,351.59,347.833,0.0
53856.0,STARLINK-4795,PAYLOAD,2022-11-03 14:00:01,15.73274616,0.0002864,53.2154,33.3901,14.5489,271.5983,-0.00040577,-0.00057378,0.0,0 STARLINK-4795,1 53856U 22114AQ  22307.58334491 -.00057378  00000-0 -40577-3 0  9996,2 53856  53.2154  33.3901 0002864  14.5489 271.5983 15.73274616  1300,6727.682,91.529,351.474,347.621,0.0
53856.0,STARLINK-4795,PAYLOAD,2022-11-03 22:00:00,15.73252569,0.0002855,53.2156,31.7393,13.315,1.8241,-0.00040926,-0.00057809,0.0,0 STARLINK-4795,1 53856U 22114AQ  22307.91667824 -.00057809  00000-0 -40926-3 0  9999,2 53856  53.2156  31.7393 0002855  13.3150   1.8241 15.73252569  1305,6727.745,91.53,351.531,347.69,0.0
53856.0,STARLINK-4795,PAYLOAD,2022-11-04 14:00:01,15.732069,0.0002988,53.2168,28.4427,16.5687,176.47,-0.0015705,-0.00215617,0.0,0 STARLINK-4795,1 53856U 22114AQ  22308.58334491 -.00215617  00000-0 -15705-2 0  9993,2 53856  53.2168  28.4427 0002988  16.5687 176.4700 15.73206900  1303,6727.876,91.533,351.751,347.73,0.0
53856.0,STARLINK-4795,PAYLOAD,2022-11-04 22:00:01,15.73215961,0.000295,53.2154,26.7901,12.9471,269.1554,-0.00085378,-0.00118882,0.0,0 STARLINK-4795,1 53856U 22114AQ  22308.91668981 -.00118882  00000-0 -85378-3 0  9994,2 53856  53.2154  26.7901 0002950  12.9471 269.1554 15.73215961  7957,6727.85,91.532,351.699,347.73,0.0
53856.0,STARLINK-4795,PAYLOAD,2022-11-05 14:00:01,15.72966392,0.0003118,53.2158,23.4929,9.0876,90.7739,0.0011396,0.00160817,0.0,0 STARLINK-4795,1 53856U 22114AQ  22309.58335648  .00160817  00000-0  11396-2 0  9990,2 53856  53.2158  23.4929 0003118   9.0876  90.7739 15.72966392  1304,6728.561,91.547,352.524,348.32800000000015,0.0
53856.0,STARLINK-4795,PAYLOAD,2022-11-05 22:00:01,15.73124318,0.0003108,53.216,21.8424,12.4553,176.1051,0.00090453,0.00127877,0.0,0 STARLINK-4795,1 53856U 22114AQ  22309.91668981  .00127877  00000-0  90453-3 0  9997,2 53856  53.2160  21.8424 0003108  12.4553 176.1051 15.73124318  1309,6728.111,91.538,352.06699999999995,347.885,0.0
